<?xml version='1.0' encoding='UTF-8'?><kml xmlns='http://www.opengis.net/kml/2.2' xmlns:gx='http://www.google.com/kml/ext/2.2'><Folder><Placemark><name></name><description></description><ExtendedData><Data name="isclosed"><displayName>isclosed</displayName><value>false</value></Data><Data name="icon"><displayName>icon</displayName><value>0</value></Data><Data name="photourl"><displayName>photourl</displayName><value></value></Data><Data name="category"><displayName>category</displayName><value></value></Data><Data name="colorindex"><displayName>colorindex</displayName><value>1</value></Data></ExtendedData><gx:MultiTrack id=""><gx:Track><when>2025-07-03T09:05:59Z</when><when>2025-07-03T09:05:59Z</when><when>2025-07-03T09:05:59Z</when><when>2025-07-03T09:05:59Z</when><when>2025-07-03T09:05:59Z</when><when>2025-07-03T09:05:59Z</when><when>2025-07-03T09:05:59Z</when><when>2025-07-03T09:05:59Z</when><when>2025-07-03T09:05:59Z</when><when>2025-07-03T09:05:59Z</when><when>2025-07-03T09:05:59Z</when><when>2025-07-03T09:05:59Z</when><when>2025-07-03T09:05:59Z</when><when>2025-07-03T09:05:59Z</when><when>2025-07-03T09:05:59Z</when><when>2025-07-03T09:05:59Z</when><when>2025-07-03T09:05:59Z</when><when>2025-07-03T09:05:59Z</when><when>2025-07-03T09:05:59Z</when><when>2025-07-03T09:05:59Z</when><when>2025-07-03T09:05:59Z</when><when>2025-07-03T09:05:59Z</when><when>2025-07-03T09:05:59Z</when><when>2025-07-03T09:05:59Z</when><when>2025-07-03T09:05:59Z</when><when>2025-07-03T09:05:59Z</when><when>2025-07-03T09:05:59Z</when><when>2025-07-03T09:05:59Z</when><gx:coord>175.517668 -40.730538 605</gx:coord><gx:coord>175.517486 -40.731992 606</gx:coord><gx:coord>175.516881 -40.733231 590</gx:coord><gx:coord>175.516064 -40.734474 572</gx:coord><gx:coord>175.514942 -40.735822 568</gx:coord><gx:coord>175.513312 -40.736560 541</gx:coord><gx:coord>175.513211 -40.737004 537</gx:coord><gx:coord>175.514249 -40.737855 533</gx:coord><gx:coord>175.514338 -40.739267 539</gx:coord><gx:coord>175.513758 -40.741162 549</gx:coord><gx:coord>175.512735 -40.741986 554</gx:coord><gx:coord>175.512027 -40.743001 551</gx:coord><gx:coord>175.512265 -40.743969 527</gx:coord><gx:coord>175.512330 -40.745057 478</gx:coord><gx:coord>175.510120 -40.746772 477</gx:coord><gx:coord>175.509497 -40.747506 506</gx:coord><gx:coord>175.509066 -40.749911 496</gx:coord><gx:coord>175.506375 -40.752069 519</gx:coord><gx:coord>175.506905 -40.752931 512</gx:coord><gx:coord>175.508346 -40.755025 491</gx:coord><gx:coord>175.510087 -40.756915 484</gx:coord><gx:coord>175.510171 -40.757868 475</gx:coord><gx:coord>175.508593 -40.760649 453</gx:coord><gx:coord>175.507522 -40.762402 464</gx:coord><gx:coord>175.507666 -40.763408 464</gx:coord><gx:coord>175.506554 -40.764378 472</gx:coord><gx:coord>175.506979 -40.764972 460</gx:coord><gx:coord>175.508275 -40.765097 456</gx:coord></gx:Track></gx:MultiTrack></Placemark></Folder></kml>